KUIPER-00053            
1 64513U 25134P   25286.66667824  .00008236  00000+0  75614-3 0  9996
2 64513  51.8940 153.8256 0003322 166.6248  95.4440 14.95583509  5854
KUIPER-00054            
1 64514U 25134Q   25286.66667824 -.01017014  00000+0 -62441-1 0  9996
2 64514  51.8820 151.0803 0007377 159.4856  26.6809 15.12697870  1576
KUIPER-00055            
1 64515U 25134R   25286.63031432  .00027296  00000+0  12358-2 0  9997
2 64515  51.8868 150.6280 0000408  24.7148 335.3851 15.20685701 18472
KUIPER-00056            
1 64516U 25134S   25286.66667824  .00011181  00000+0  10846-2 0  9997
2 64516  51.8917 154.6466 0003816 168.8339 160.4312 14.93066377  5427
KUIPER-00057            
1 64517U 25134T   25286.34873316  .00003426  00000+0  47707-3 0  9998
2 64517  51.8927 163.1474 0007920 167.4790 192.6370 14.80036037 18273
KUIPER-00058            
1 64518U 25134U   25286.66667824 -.00039039  00000+0 -39275-2 0  9990
2 64518  51.8927 155.9876 0005150 168.8981 212.9042 14.90773921  5212
KUIPER-00059            
1 64519U 25134V   25286.66667824 -.00022885  00000+0 -16008-2 0  9991
2 64519  51.8925 152.3473 0002050 329.5548  53.0417 15.04513167  4956
KUIPER-00060            
1 64520U 25134W   25286.66667824 -.01498342  00000+0 -13160+0 0  9992
2 64520  51.8912 152.6314 0003179 170.8009 314.1818 14.99243897  1993
